DRAGONFLY               
1 65729U 98067XH  26017.97511711  .00461592  93143-4  13780-2 0  9999
2 65729  51.6195 307.9110 0007895 134.3438 225.8217 15.91776246 18895
1998-067XK              
1 65731U 98067XK  26017.19323472  .00157519  00000+0  10503-2 0  9997
2 65731  51.6278 316.2729 0004723  95.6266 264.5271 15.74350124 18719
RSP-03                  
1 65732U 98067XL  26017.98286435  .00230935  00000+0  11111-2 0  9992
2 65732  51.6247 310.2616 0005729 112.8259 247.3349 15.81422986 18872
GHS-01                  
1 65733U 98067XM  26017.52429972  .01426401  13478-2  16122-2 0  9997
2 65733  51.6197 307.8791 0007705 155.4523 204.6858 16.08836766 18861
YOTSUBA-KULOVER         
1 65941U 98067XN  26017.98178842  .00083688  00000+0  82110-3 0  9995
2 65941  51.6288 317.0531 0004217 121.0092 239.1318 15.65331304 15527
BOTAN                   
1 65942U 98067XP  26017.93194090  .00154614  00000+0  11100-2 0  9992
2 65942  51.6263 315.2062 0004955 122.3049 237.8429 15.72633536 15545
E-KAGAKU-1              
1 65943U 98067XQ  26017.98173228  .00083392  00000+0  81910-3 0  9999
2 65943  51.6305 317.0601 0002766 124.5965 235.5292 15.65310221 15527
HRC MONOBLOCK CAMERA    
1 66052U 98067XR  26017.56470221  .00037317  00000+0  51449-3 0  9998
2 66052  51.6311 322.5195 0001027  14.9522 345.1500 15.56837537 14416
HTV-X1                  
1 66174U 25241A   26017.85314278  .00013231  00000+0  24462-3 0  9992
2 66174  51.6334 323.6922 0007802  29.9146 330.2287 15.49362465   519
SZ-21 MODULE            
1 66515U 25246C   26017.43644035  .00032342  00000+0  32679-3 0  9990
2 66515  41.4746 157.9401 0002482 190.6884 169.3904 15.64628600 10034
SHENZHOU-22             
1 66645U 25272A   26017.75917748  .00020114  00000+0  23896-3 0  9997
2 66645  41.4657 157.7848 0011173 305.0077  54.9713 15.60612084267648
SOYUZ-MS 28             
1 66664U 25275A   26017.85314278  .00013231  00000+0  24462-3 0  9993
2 66664  51.6334 323.6922 0007802  29.9146 330.2287 15.49362465  1288
