CCSDS_OMM_VERS = 2.0
CREATION_DATE  = 
ORIGINATOR     = 

OBJECT_NAME    = DRAGONFLY
OBJECT_ID      = 1998-067XH
CENTER_NAME    = EARTH
REF_FRAME      = TEME
TIME_SYSTEM    = UTC
MEAN_ELEMENT_THEORY = SGP/SGP4

EPOCH          = 2026-01-17T23:24:10.118304
MEAN_MOTION    = 15.91776246
ECCENTRICITY   = .00078959
INCLINATION    = 51.6195
RA_OF_ASC_NODE = 307.9110
ARG_OF_PERICENTER = 134.3438
MEAN_ANOMALY   = 225.8217

EPHEMERIS_TYPE = 0
CLASSIFICATION_TYPE = U
NORAD_CAT_ID   = 65729
ELEMENT_SET_NO = 999
REV_AT_EPOCH   = 1889
BSTAR          = .13779564E-2
MEAN_MOTION_DOT = .461592E-2
MEAN_MOTION_DDOT = .93142738E-4

CCSDS_OMM_VERS = 2.0
CREATION_DATE  = 
ORIGINATOR     = 

OBJECT_NAME    = 1998-067XK
OBJECT_ID      = 1998-067XK
CENTER_NAME    = EARTH
REF_FRAME      = TEME
TIME_SYSTEM    = UTC
MEAN_ELEMENT_THEORY = SGP/SGP4

EPOCH          = 2026-01-17T04:38:15.479808
MEAN_MOTION    = 15.74350124
ECCENTRICITY   = .00047234
INCLINATION    = 51.6278
RA_OF_ASC_NODE = 316.2729
ARG_OF_PERICENTER = 95.6266
MEAN_ANOMALY   = 264.5271

EPHEMERIS_TYPE = 0
CLASSIFICATION_TYPE = U
NORAD_CAT_ID   = 65731
ELEMENT_SET_NO = 999
REV_AT_EPOCH   = 1871
BSTAR          = .10502606E-2
MEAN_MOTION_DOT = .157519E-2
MEAN_MOTION_DDOT = 0

CCSDS_OMM_VERS = 2.0
CREATION_DATE  = 
ORIGINATOR     = 

OBJECT_NAME    = RSP-03
OBJECT_ID      = 1998-067XL
CENTER_NAME    = EARTH
REF_FRAME      = TEME
TIME_SYSTEM    = UTC
MEAN_ELEMENT_THEORY = SGP/SGP4

EPOCH          = 2026-01-17T23:35:19.479840
MEAN_MOTION    = 15.81422986
ECCENTRICITY   = .00057296
INCLINATION    = 51.6247
RA_OF_ASC_NODE = 310.2616
ARG_OF_PERICENTER = 112.8259
MEAN_ANOMALY   = 247.3349

EPHEMERIS_TYPE = 0
CLASSIFICATION_TYPE = U
NORAD_CAT_ID   = 65732
ELEMENT_SET_NO = 999
REV_AT_EPOCH   = 1887
BSTAR          = .11110755E-2
MEAN_MOTION_DOT = .230935E-2
MEAN_MOTION_DDOT = 0

CCSDS_OMM_VERS = 2.0
CREATION_DATE  = 
ORIGINATOR     = 

OBJECT_NAME    = GHS-01
OBJECT_ID      = 1998-067XM
CENTER_NAME    = EARTH
REF_FRAME      = TEME
TIME_SYSTEM    = UTC
MEAN_ELEMENT_THEORY = SGP/SGP4

EPOCH          = 2026-01-17T12:34:59.495808
MEAN_MOTION    = 16.08836766
ECCENTRICITY   = .00077051
INCLINATION    = 51.6197
RA_OF_ASC_NODE = 307.8791
ARG_OF_PERICENTER = 155.4523
MEAN_ANOMALY   = 204.6858

EPHEMERIS_TYPE = 0
CLASSIFICATION_TYPE = U
NORAD_CAT_ID   = 65733
ELEMENT_SET_NO = 999
REV_AT_EPOCH   = 1886
BSTAR          = .16121539E-2
MEAN_MOTION_DOT = .1426401E-1
MEAN_MOTION_DDOT = .13478294E-2

CCSDS_OMM_VERS = 2.0
CREATION_DATE  = 
ORIGINATOR     = 

OBJECT_NAME    = YOTSUBA-KULOVER
OBJECT_ID      = 1998-067XN
CENTER_NAME    = EARTH
REF_FRAME      = TEME
TIME_SYSTEM    = UTC
MEAN_ELEMENT_THEORY = SGP/SGP4

EPOCH          = 2026-01-17T23:33:46.519488
MEAN_MOTION    = 15.65331304
ECCENTRICITY   = .00042178
INCLINATION    = 51.6288
RA_OF_ASC_NODE = 317.0531
ARG_OF_PERICENTER = 121.0092
MEAN_ANOMALY   = 239.1318

EPHEMERIS_TYPE = 0
CLASSIFICATION_TYPE = U
NORAD_CAT_ID   = 65941
ELEMENT_SET_NO = 999
REV_AT_EPOCH   = 1552
BSTAR          = .82109507E-3
MEAN_MOTION_DOT = .83688E-3
MEAN_MOTION_DDOT = 0

CCSDS_OMM_VERS = 2.0
CREATION_DATE  = 
ORIGINATOR     = 

OBJECT_NAME    = BOTAN
OBJECT_ID      = 1998-067XP
CENTER_NAME    = EARTH
REF_FRAME      = TEME
TIME_SYSTEM    = UTC
MEAN_ELEMENT_THEORY = SGP/SGP4

EPOCH          = 2026-01-17T22:21:59.693760
MEAN_MOTION    = 15.72633536
ECCENTRICITY   = .00049553
INCLINATION    = 51.6263
RA_OF_ASC_NODE = 315.2062
ARG_OF_PERICENTER = 122.3049
MEAN_ANOMALY   = 237.8429

EPHEMERIS_TYPE = 0
CLASSIFICATION_TYPE = U
NORAD_CAT_ID   = 65942
ELEMENT_SET_NO = 999
REV_AT_EPOCH   = 1554
BSTAR          = .11099848E-2
MEAN_MOTION_DOT = .154614E-2
MEAN_MOTION_DDOT = 0

CCSDS_OMM_VERS = 2.0
CREATION_DATE  = 
ORIGINATOR     = 

OBJECT_NAME    = E-KAGAKU-1
OBJECT_ID      = 1998-067XQ
CENTER_NAME    = EARTH
REF_FRAME      = TEME
TIME_SYSTEM    = UTC
MEAN_ELEMENT_THEORY = SGP/SGP4

EPOCH          = 2026-01-17T23:33:41.668992
MEAN_MOTION    = 15.65310221
ECCENTRICITY   = .00027662
INCLINATION    = 51.6305
RA_OF_ASC_NODE = 317.0601
ARG_OF_PERICENTER = 124.5965
MEAN_ANOMALY   = 235.5292

EPHEMERIS_TYPE = 0
CLASSIFICATION_TYPE = U
NORAD_CAT_ID   = 65943
ELEMENT_SET_NO = 999
REV_AT_EPOCH   = 1552
BSTAR          = .81909675E-3
MEAN_MOTION_DOT = .83392E-3
MEAN_MOTION_DDOT = 0

CCSDS_OMM_VERS = 2.0
CREATION_DATE  = 
ORIGINATOR     = 

OBJECT_NAME    = HRC MONOBLOCK CAMERA
OBJECT_ID      = 1998-067XR
CENTER_NAME    = EARTH
REF_FRAME      = TEME
TIME_SYSTEM    = UTC
MEAN_ELEMENT_THEORY = SGP/SGP4

EPOCH          = 2026-01-17T13:33:10.270944
MEAN_MOTION    = 15.56837537
ECCENTRICITY   = .00010271
INCLINATION    = 51.6311
RA_OF_ASC_NODE = 322.5195
ARG_OF_PERICENTER = 14.9522
MEAN_ANOMALY   = 345.1500

EPHEMERIS_TYPE = 0
CLASSIFICATION_TYPE = U
NORAD_CAT_ID   = 66052
ELEMENT_SET_NO = 999
REV_AT_EPOCH   = 1441
BSTAR          = .5144917E-3
MEAN_MOTION_DOT = .37317E-3
MEAN_MOTION_DDOT = 0

CCSDS_OMM_VERS = 2.0
CREATION_DATE  = 
ORIGINATOR     = 

OBJECT_NAME    = HTV-X1
OBJECT_ID      = 2025-241A
CENTER_NAME    = EARTH
REF_FRAME      = TEME
TIME_SYSTEM    = UTC
MEAN_ELEMENT_THEORY = SGP/SGP4

EPOCH          = 2026-01-17T20:28:31.536192
MEAN_MOTION    = 15.49362465
ECCENTRICITY   = .00078027
INCLINATION    = 51.6334
RA_OF_ASC_NODE = 323.6922
ARG_OF_PERICENTER = 29.9146
MEAN_ANOMALY   = 330.2287

EPHEMERIS_TYPE = 0
CLASSIFICATION_TYPE = U
NORAD_CAT_ID   = 66174
ELEMENT_SET_NO = 999
REV_AT_EPOCH   = 51
BSTAR          = .24461794E-3
MEAN_MOTION_DOT = .13231E-3
MEAN_MOTION_DDOT = 0

CCSDS_OMM_VERS = 2.0
CREATION_DATE  = 
ORIGINATOR     = 

OBJECT_NAME    = SZ-21 MODULE
OBJECT_ID      = 2025-246C
CENTER_NAME    = EARTH
REF_FRAME      = TEME
TIME_SYSTEM    = UTC
MEAN_ELEMENT_THEORY = SGP/SGP4

EPOCH          = 2026-01-17T10:28:28.446240
MEAN_MOTION    = 15.64628600
ECCENTRICITY   = .0002482
INCLINATION    = 41.4746
RA_OF_ASC_NODE = 157.9401
ARG_OF_PERICENTER = 190.6884
MEAN_ANOMALY   = 169.3904

EPHEMERIS_TYPE = 0
CLASSIFICATION_TYPE = U
NORAD_CAT_ID   = 66515
ELEMENT_SET_NO = 999
REV_AT_EPOCH   = 1003
BSTAR          = .32679476E-3
MEAN_MOTION_DOT = .32342E-3
MEAN_MOTION_DDOT = 0

CCSDS_OMM_VERS = 2.0
CREATION_DATE  = 
ORIGINATOR     = 

OBJECT_NAME    = SHENZHOU-22
OBJECT_ID      = 2025-272A
CENTER_NAME    = EARTH
REF_FRAME      = TEME
TIME_SYSTEM    = UTC
MEAN_ELEMENT_THEORY = SGP/SGP4

EPOCH          = 2026-01-17T18:13:12.934272
MEAN_MOTION    = 15.60612084
ECCENTRICITY   = .00111739
INCLINATION    = 41.4657
RA_OF_ASC_NODE = 157.7848
ARG_OF_PERICENTER = 305.0077
MEAN_ANOMALY   = 54.9713

EPHEMERIS_TYPE = 0
CLASSIFICATION_TYPE = U
NORAD_CAT_ID   = 66645
ELEMENT_SET_NO = 999
REV_AT_EPOCH   = 26764
BSTAR          = .23895988E-3
MEAN_MOTION_DOT = .20114E-3
MEAN_MOTION_DDOT = 0

CCSDS_OMM_VERS = 2.0
CREATION_DATE  = 
ORIGINATOR     = 

OBJECT_NAME    = SOYUZ-MS 28
OBJECT_ID      = 2025-275A
CENTER_NAME    = EARTH
REF_FRAME      = TEME
TIME_SYSTEM    = UTC
MEAN_ELEMENT_THEORY = SGP/SGP4

EPOCH          = 2026-01-17T20:28:31.536192
MEAN_MOTION    = 15.49362465
ECCENTRICITY   = .00078027
INCLINATION    = 51.6334
RA_OF_ASC_NODE = 323.6922
ARG_OF_PERICENTER = 29.9146
MEAN_ANOMALY   = 330.2287

EPHEMERIS_TYPE = 0
CLASSIFICATION_TYPE = U
NORAD_CAT_ID   = 66664
ELEMENT_SET_NO = 999
REV_AT_EPOCH   = 128
BSTAR          = .24461794E-3
MEAN_MOTION_DOT = .13231E-3
MEAN_MOTION_DDOT = 0

